start=new Date('2022-10-28T00:00:00.000Z').valueOf();
sats=[{"CLASSIFICATION_TYPE":"U","ELEMENT_SET_NO":"999","REV_AT_EPOCH":"5115","ARG_OF_PERICENTER":"26.8325","EPHEMERIS_TYPE":"0","PERIOD":"95.438","ECCENTRICITY":"0.00025380","REF_FRAME":"TEME","MEAN_MOTION_DOT":"0.00001484","BSTAR":"0.00011136000000","FILE":"3635758","OBJECT_ID":"2021-125AX","TLE_LINE2":"2 50201  53.2182 357.6704 0002538  26.8325 333.2798 15.08834012 51156","MEAN_MOTION_DDOT":"0.0000000000000","MEAN_MOTION":"15.08834012","CENTER_NAME":"EARTH","EPOCH":"2022-10-27T09:22:58.445472","MEAN_ANOMALY":"333.2798","DECAY_DATE":null,"LAUNCH_DATE":"2021-12-18","GP_ID":"216305134","TIME_SYSTEM":"UTC","RA_OF_ASC_NODE":"357.6704","MEAN_ELEMENT_THEORY":"SGP4","PERIAPSIS":"538.008","OBJECT_NAME":"STARLINK-3255","NORAD_CAT_ID":"50201","SITE":"AFWTR","OBJECT_TYPE":"PAYLOAD","COUNTRY_CODE":"US","INCLINATION":"53.2182","APOAPSIS":"541.519","SEMIMAJOR_AXIS":"6917.899","RCS_SIZE":"LARGE","TLE_LINE1":"1 50201U 21125AX  22300.39095423  .00001484  00000-0  11136-3 0  9993"},{"LAUNCH_DATE":"2021-12-18","DECAY_DATE":null,"GP_ID":"216305886","TIME_SYSTEM":"UTC","MEAN_MOTION":"15.08864145","CENTER_NAME":"EARTH","MEAN_ANOMALY":"326.6108","EPOCH":"2022-10-27T10:31:52.214592","MEAN_MOTION_DOT":"0.00009073","BSTAR":"0.00058705000000","FILE":"3635758","TLE_LINE2":"2 50202  53.2171 357.4347 0002689  33.5054 326.6108 15.08864145 51158","OBJECT_ID":"2021-125AY","MEAN_MOTION_DDOT":"0.0000000000000","ELEMENT_SET_NO":"999","CLASSIFICATION_TYPE":"U","REV_AT_EPOCH":"5115","ARG_OF_PERICENTER":"33.5054","EPHEMERIS_TYPE":"0","PERIOD":"95.436","REF_FRAME":"TEME","ECCENTRICITY":"0.00026890","SEMIMAJOR_AXIS":"6917.807","TLE_LINE1":"1 50202U 21125AY  22300.43879878  .00009073  00000-0  58705-3 0  9998","RCS_SIZE":"LARGE","COUNTRY_CODE":"US","INCLINATION":"53.2171","APOAPSIS":"541.532","RA_OF_ASC_NODE":"357.4347","MEAN_ELEMENT_THEORY":"SGP4","PERIAPSIS":"537.811","OBJECT_NAME":"STARLINK-3256","SITE":"AFWTR","OBJECT_TYPE":"PAYLOAD","NORAD_CAT_ID":"50202"},{"MEAN_ELEMENT_THEORY":"SGP4","PERIAPSIS":"537.859","RA_OF_ASC_NODE":"357.3411","OBJECT_NAME":"STARLINK-3257","SITE":"AFWTR","OBJECT_TYPE":"PAYLOAD","NORAD_CAT_ID":"50203","SEMIMAJOR_AXIS":"6917.891","TLE_LINE1":"1 50203U 21125AZ  22300.46455591  .00003355  00000-0  22885-3 0  9991","RCS_SIZE":"LARGE","INCLINATION":"53.2184","COUNTRY_CODE":"US","APOAPSIS":"541.653","BSTAR":"0.00022885000000","MEAN_MOTION_DOT":"0.00003355","FILE":"3635758","OBJECT_ID":"2021-125AZ","TLE_LINE2":"2 50203  53.2184 357.3411 0002742  29.5283 330.5863 15.08836477 51220","MEAN_MOTION_DDOT":"0.0000000000000","CLASSIFICATION_TYPE":"U","ELEMENT_SET_NO":"999","REV_AT_EPOCH":"5122","ARG_OF_PERICENTER":"29.5283","REF_FRAME":"TEME","ECCENTRICITY":"0.00027420","EPHEMERIS_TYPE":"0","PERIOD":"95.438","DECAY_DATE":null,"LAUNCH_DATE":"2021-12-18","GP_ID":"216306628","TIME_SYSTEM":"UTC","MEAN_MOTION":"15.08836477","CENTER_NAME":"EARTH","MEAN_ANOMALY":"330.5863","EPOCH":"2022-10-27T11:08:57.630624"},{"MEAN_MOTION_DDOT":"0.0000000000000","TLE_LINE2":"2 50204  53.2165 356.5331 0002543  32.1173 327.9973 15.08848396 51246","OBJECT_ID":"2021-125BA","FILE":"3636022","BSTAR":"0.00007066700000","MEAN_MOTION_DOT":"0.00000837","ECCENTRICITY":"0.00025430","REF_FRAME":"TEME","EPHEMERIS_TYPE":"0","PERIOD":"95.437","ARG_OF_PERICENTER":"32.1173","ELEMENT_SET_NO":"999","CLASSIFICATION_TYPE":"U","REV_AT_EPOCH":"5124","GP_ID":"216336625","TIME_SYSTEM":"UTC","LAUNCH_DATE":"2021-12-18","DECAY_DATE":null,"MEAN_ANOMALY":"327.9973","EPOCH":"2022-10-27T15:28:36.586560","CENTER_NAME":"EARTH","MEAN_MOTION":"15.08848396","SITE":"AFWTR","NORAD_CAT_ID":"50204","OBJECT_TYPE":"PAYLOAD","OBJECT_NAME":"STARLINK-3254","PERIAPSIS":"537.961","MEAN_ELEMENT_THEORY":"SGP4","RA_OF_ASC_NODE":"356.5331","RCS_SIZE":"LARGE","TLE_LINE1":"1 50204U 21125BA  22300.64486790  .00000837  00000-0  70667-4 0  9991","SEMIMAJOR_AXIS":"6917.855","APOAPSIS":"541.479","INCLINATION":"53.2165","COUNTRY_CODE":"US"},{"ELEMENT_SET_NO":"999","REV_AT_EPOCH":"5163","CLASSIFICATION_TYPE":"U","ARG_OF_PERICENTER":"33.0852","ECCENTRICITY":"0.00026710","REF_FRAME":"TEME","EPHEMERIS_TYPE":"0","PERIOD":"95.438","BSTAR":"0.00026298000000","MEAN_MOTION_DOT":"0.00003900","FILE":"3636022","TLE_LINE2":"2 50205  53.2190 325.8904 0002671  33.0852 327.0307 15.08840027 51634","OBJECT_ID":"2021-125BB","MEAN_MOTION_DDOT":"0.0000000000000","MEAN_MOTION":"15.08840027","CENTER_NAME":"EARTH","EPOCH":"2022-10-27T18:50:03.516288","MEAN_ANOMALY":"327.0307","LAUNCH_DATE":"2021-12-18","DECAY_DATE":null,"TIME_SYSTEM":"UTC","GP_ID":"216336376","MEAN_ELEMENT_THEORY":"SGP4","PERIAPSIS":"537.898","RA_OF_ASC_NODE":"325.8904","OBJECT_NAME":"STARLINK-3260","NORAD_CAT_ID":"50205","SITE":"AFWTR","OBJECT_TYPE":"PAYLOAD","INCLINATION":"53.2190","COUNTRY_CODE":"US","APOAPSIS":"541.593","SEMIMAJOR_AXIS":"6917.880","TLE_LINE1":"1 50205U 21125BB  22300.78476292  .00003900  00000-0  26298-3 0  9997","RCS_SIZE":"LARGE"},{"RA_OF_ASC_NODE":"356.5135","MEAN_ELEMENT_THEORY":"SGP4","PERIAPSIS":"537.718","OBJECT_NAME":"STARLINK-3258","NORAD_CAT_ID":"50206","SITE":"AFWTR","OBJECT_TYPE":"PAYLOAD","SEMIMAJOR_AXIS":"6917.853","RCS_SIZE":"LARGE","TLE_LINE1":"1 50206U 21125BC  22300.64854747  .00002576  00000-0  17987-3 0  9991","COUNTRY_CODE":"US","INCLINATION":"53.2181","APOAPSIS":"541.718","MEAN_MOTION_DOT":"0.00002576","BSTAR":"0.00017987000000","FILE":"3636022","OBJECT_ID":"2021-125BC","TLE_LINE2":"2 50206  53.2181 356.5135 0002891  26.7886 333.3255 15.08849059 49118","MEAN_MOTION_DDOT":"0.0000000000000","CLASSIFICATION_TYPE":"U","ELEMENT_SET_NO":"999","REV_AT_EPOCH":"4911","ARG_OF_PERICENTER":"26.7886","EPHEMERIS_TYPE":"0","PERIOD":"95.437","REF_FRAME":"TEME","ECCENTRICITY":"0.00028910","LAUNCH_DATE":"2021-12-18","DECAY_DATE":null,"TIME_SYSTEM":"UTC","GP_ID":"216337623","MEAN_MOTION":"15.08849059","CENTER_NAME":"EARTH","EPOCH":"2022-10-27T15:33:54.501408","MEAN_ANOMALY":"333.3255"},{"EPOCH":"2022-10-27T09:17:39.987168","MEAN_ANOMALY":"331.5161","CENTER_NAME":"EARTH","MEAN_MOTION":"15.08855274","GP_ID":"216306128","TIME_SYSTEM":"UTC","DECAY_DATE":null,"LAUNCH_DATE":"2021-12-18","ECCENTRICITY":"0.00028640","REF_FRAME":"TEME","PERIOD":"95.437","EPHEMERIS_TYPE":"0","ARG_OF_PERICENTER":"28.5988","CLASSIFICATION_TYPE":"U","ELEMENT_SET_NO":"999","REV_AT_EPOCH":"4914","MEAN_MOTION_DDOT":"0.0000000000000","TLE_LINE2":"2 50207  53.2159 357.6902 0002864  28.5988 331.5161 15.08855274 49146","OBJECT_ID":"2021-125BD","FILE":"3635758","BSTAR":"0.00033604000000","MEAN_MOTION_DOT":"0.00005066","APOAPSIS":"541.680","INCLINATION":"53.2159","COUNTRY_CODE":"US","RCS_SIZE":"LARGE","TLE_LINE1":"1 50207U 21125BD  22300.38726837  .00005066  00000-0  33604-3 0  9992","SEMIMAJOR_AXIS":"6917.834","OBJECT_TYPE":"PAYLOAD","SITE":"AFWTR","NORAD_CAT_ID":"50207","OBJECT_NAME":"STARLINK-3262","PERIAPSIS":"537.717","MEAN_ELEMENT_THEORY":"SGP4","RA_OF_ASC_NODE":"357.6902"},{"INCLINATION":"53.2178","COUNTRY_CODE":"US","APOAPSIS":"541.734","SEMIMAJOR_AXIS":"6917.875","RCS_SIZE":"LARGE","TLE_LINE1":"1 50803U 22001A   22300.37162509  .00000285  00000-0  36050-4 0  9994","PERIAPSIS":"537.747","MEAN_ELEMENT_THEORY":"SGP4","RA_OF_ASC_NODE":"287.7444","OBJECT_NAME":"STARLINK-3321","NORAD_CAT_ID":"50803","SITE":"AFETR","OBJECT_TYPE":"PAYLOAD","MEAN_MOTION":"15.08841630","CENTER_NAME":"EARTH","MEAN_ANOMALY":"322.2671","EPOCH":"2022-10-27T08:55:08.407776","LAUNCH_DATE":"2022-01-06","DECAY_DATE":null,"TIME_SYSTEM":"UTC","GP_ID":"216305659","REV_AT_EPOCH":"4482","CLASSIFICATION_TYPE":"U","ELEMENT_SET_NO":"999","ARG_OF_PERICENTER":"37.8523","REF_FRAME":"TEME","ECCENTRICITY":"0.00028820","PERIOD":"95.437","EPHEMERIS_TYPE":"0","BSTAR":"0.00003605000000","MEAN_MOTION_DOT":"0.00000285","FILE":"3635758","TLE_LINE2":"2 50803  53.2178 287.7444 0002882  37.8523 322.2671 15.08841630 44825","OBJECT_ID":"2022-001A","MEAN_MOTION_DDOT":"0.0000000000000"},{"COUNTRY_CODE":"US","INCLINATION":"53.2167","APOAPSIS":"541.161","SEMIMAJOR_AXIS":"6917.843","TLE_LINE1":"1 50804U 22001B   22300.33942273  .00008980  00000-0  58140-3 0  9998","RCS_SIZE":"LARGE","OBJECT_NAME":"STARLINK-3323","RA_OF_ASC_NODE":"277.8996","PERIAPSIS":"538.255","MEAN_ELEMENT_THEORY":"SGP4","SITE":"AFETR","OBJECT_TYPE":"PAYLOAD","NORAD_CAT_ID":"50804","MEAN_MOTION":"15.08852178","MEAN_ANOMALY":"318.7415","EPOCH":"2022-10-27T08:08:46.123872","CENTER_NAME":"EARTH","GP_ID":"216309181","TIME_SYSTEM":"UTC","DECAY_DATE":null,"LAUNCH_DATE":"2022-01-06","ARG_OF_PERICENTER":"41.3736","CLASSIFICATION_TYPE":"U","ELEMENT_SET_NO":"999","REV_AT_EPOCH":"4620","EPHEMERIS_TYPE":"0","PERIOD":"95.437","ECCENTRICITY":"0.00021000","REF_FRAME":"TEME","FILE":"3635827","MEAN_MOTION_DOT":"0.00008980","BSTAR":"0.00058140000000","MEAN_MOTION_DDOT":"0.0000000000000","TLE_LINE2":"2 50804  53.2167 277.8996 0002100  41.3736 318.7415 15.08852178 46204","OBJECT_ID":"2022-001B"},{"NORAD_CAT_ID":"50805","SITE":"AFETR","OBJECT_TYPE":"PAYLOAD","RA_OF_ASC_NODE":"276.4256","MEAN_ELEMENT_THEORY":"SGP4","PERIAPSIS":"538.149","OBJECT_NAME":"STARLINK-3333","RCS_SIZE":"LARGE","TLE_LINE1":"1 50805U 22001C   22300.66695946  .00007853  00000-0  51074-3 0  9994","SEMIMAJOR_AXIS":"6917.833","APOAPSIS":"541.246","COUNTRY_CODE":"US","INCLINATION":"53.2176","OBJECT_ID":"2022-001C","TLE_LINE2":"2 50805  53.2176 276.4256 0002238  45.0067 315.1106 15.08855665 45008","MEAN_MOTION_DDOT":"0.0000000000000","MEAN_MOTION_DOT":"0.00007853","BSTAR":"0.00051074000000","FILE":"3636022","PERIOD":"95.437","EPHEMERIS_TYPE":"0","REF_FRAME":"TEME","ECCENTRICITY":"0.00022380","ELEMENT_SET_NO":"999","REV_AT_EPOCH":"4500","CLASSIFICATION_TYPE":"U","ARG_OF_PERICENTER":"45.0067","DECAY_DATE":null,"LAUNCH_DATE":"2022-01-06","GP_ID":"216337402","TIME_SYSTEM":"UTC","CENTER_NAME":"EARTH","EPOCH":"2022-10-27T16:00:25.297344","MEAN_ANOMALY":"315.1106","MEAN_MOTION":"15.08855665"}];
